[
  {
    "code": "011002",
    "prefecture_code": 1,
    "name": "札幌市",
    "capital": true,
    "name_kana": "サッポロシ"
  },
  {
    "code": "011011",
    "prefecture_code": 1,
    "name": "札幌市中央区",
    "capital": false,
    "name_kana": "サッポロシチュウオウク"
  },
  {
    "code": "011029",
    "prefecture_code": 1,
    "name": "札幌市北区",
    "capital": false,
    "name_kana": "サッポロシキタク"
  },
  {
    "code": "011037",
    "prefecture_code": 1,
    "name": "札幌市東区",
    "capital": false,
    "name_kana": "サッポロシヒガシク"
  },
  {
    "code": "011045",
    "prefecture_code": 1,
    "name": "札幌市白石区",
    "capital": false,
    "name_kana": "サッポロシシロイシク"
  },
  {
    "code": "011053",
    "prefecture_code": 1,
    "name": "札幌市豊平区",
    "capital": false,
    "name_kana": "サッポロシトヨヒラク"
  },
  {
    "code": "011061",
    "prefecture_code": 1,
    "name": "札幌市南区",
    "capital": false,
    "name_kana": "サッポロシミナミク"
  },
  {
    "code": "011070",
    "prefecture_code": 1,
    "name": "札幌市西区",
    "capital": false,
    "name_kana": "サッポロシニシク"
  },
  {
    "code": "011088",
    "prefecture_code": 1,
    "name": "札幌市厚別区",
    "capital": false,
    "name_kana": "サッポロシアツベツク"
  },
  {
    "code": "011096",
    "prefecture_code": 1,
    "name": "札幌市手稲区",
    "capital": false,
    "name_kana": "サッポロシテイネク"
  },
  {
    "code": "011100",
    "prefecture_code": 1,
    "name": "札幌市清田区",
    "capital": false,
    "name_kana": "サッポロシキヨタク"
  },
  {
    "code": "012025",
    "prefecture_code": 1,
    "name": "函館市",
    "capital": false,
    "name_kana": "ハコダテシ"
  },
  {
    "code": "012033",
    "prefecture_code": 1,
    "name": "小樽市",
    "capital": false,
    "name_kana": "オタルシ"
  },
  {
    "code": "012041",
    "prefecture_code": 1,
    "name": "旭川市",
    "capital": false,
    "name_kana": "アサヒカワシ"
  },
  {
    "code": "012050",
    "prefecture_code": 1,
    "name": "室蘭市",
    "capital": false,
    "name_kana": "ムロランシ"
  },
  {
    "code": "012068",
    "prefecture_code": 1,
    "name": "釧路市",
    "capital": false,
    "name_kana": "クシロシ"
  },
  {
    "code": "012076",
    "prefecture_code": 1,
    "name": "帯広市",
    "capital": false,
    "name_kana": "オビヒロシ"
  },
  {
    "code": "012084",
    "prefecture_code": 1,
    "name": "北見市",
    "capital": false,
    "name_kana": "キタミシ"
  },
  {
    "code": "012092",
    "prefecture_code": 1,
    "name": "夕張市",
    "capital": false,
    "name_kana": "ユウバリシ"
  },
  {
    "code": "012106",
    "prefecture_code": 1,
    "name": "岩見沢市",
    "capital": false,
    "name_kana": "イワミザワシ"
  },
  {
    "code": "012114",
    "prefecture_code": 1,
    "name": "網走市",
    "capital": false,
    "name_kana": "アバシリシ"
  },
  {
    "code": "012122",
    "prefecture_code": 1,
    "name": "留萌市",
    "capital": false,
    "name_kana": "ルモイシ"
  },
  {
    "code": "012131",
    "prefecture_code": 1,
    "name": "苫小牧市",
    "capital": false,
    "name_kana": "トマコマイシ"
  },
  {
    "code": "012149",
    "prefecture_code": 1,
    "name": "稚内市",
    "capital": false,
    "name_kana": "ワッカナイシ"
  },
  {
    "code": "012157",
    "prefecture_code": 1,
    "name": "美唄市",
    "capital": false,
    "name_kana": "ビバイシ"
  },
  {
    "code": "012165",
    "prefecture_code": 1,
    "name": "芦別市",
    "capital": false,
    "name_kana": "アシベツシ"
  },
  {
    "code": "012173",
    "prefecture_code": 1,
    "name": "江別市",
    "capital": false,
    "name_kana": "エベツシ"
  },
  {
    "code": "012181",
    "prefecture_code": 1,
    "name": "赤平市",
    "capital": false,
    "name_kana": "アカビラシ"
  },
  {
    "code": "012190",
    "prefecture_code": 1,
    "name": "紋別市",
    "capital": false,
    "name_kana": "モンベツシ"
  },
  {
    "code": "012203",
    "prefecture_code": 1,
    "name": "士別市",
    "capital": false,
    "name_kana": "シベツシ"
  },
  {
    "code": "012211",
    "prefecture_code": 1,
    "name": "名寄市",
    "capital": false,
    "name_kana": "ナヨロシ"
  },
  {
    "code": "012220",
    "prefecture_code": 1,
    "name": "三笠市",
    "capital": false,
    "name_kana": "ミカサシ"
  },
  {
    "code": "012238",
    "prefecture_code": 1,
    "name": "根室市",
    "capital": false,
    "name_kana": "ネムロシ"
  },
  {
    "code": "012246",
    "prefecture_code": 1,
    "name": "千歳市",
    "capital": false,
    "name_kana": "チトセシ"
  },
  {
    "code": "012254",
    "prefecture_code": 1,
    "name": "滝川市",
    "capital": false,
    "name_kana": "タキカワシ"
  },
  {
    "code": "012262",
    "prefecture_code": 1,
    "name": "砂川市",
    "capital": false,
    "name_kana": "スナガワシ"
  },
  {
    "code": "012271",
    "prefecture_code": 1,
    "name": "歌志内市",
    "capital": false,
    "name_kana": "ウタシナイシ"
  },
  {
    "code": "012289",
    "prefecture_code": 1,
    "name": "深川市",
    "capital": false,
    "name_kana": "フカガワシ"
  },
  {
    "code": "012297",
    "prefecture_code": 1,
    "name": "富良野市",
    "capital": false,
    "name_kana": "フラノシ"
  },
  {
    "code": "012301",
    "prefecture_code": 1,
    "name": "登別市",
    "capital": false,
    "name_kana": "ノボリベツシ"
  },
  {
    "code": "012319",
    "prefecture_code": 1,
    "name": "恵庭市",
    "capital": false,
    "name_kana": "エニワシ"
  },
  {
    "code": "012335",
    "prefecture_code": 1,
    "name": "伊達市",
    "capital": false,
    "name_kana": "ダテシ"
  },
  {
    "code": "012343",
    "prefecture_code": 1,
    "name": "北広島市",
    "capital": false,
    "name_kana": "キタヒロシマシ"
  },
  {
    "code": "012351",
    "prefecture_code": 1,
    "name": "石狩市",
    "capital": false,
    "name_kana": "イシカリシ"
  },
  {
    "code": "012360",
    "prefecture_code": 1,
    "name": "北斗市",
    "capital": false,
    "name_kana": "ホクトシ"
  },
  {
    "code": "013030",
    "prefecture_code": 1,
    "name": "当別町",
    "capital": false,
    "name_kana": "トウベツチョウ",
    "district": "石狩郡"
  },
  {
    "code": "013048",
    "prefecture_code": 1,
    "name": "新篠津村",
    "capital": false,
    "name_kana": "シンシノツムラ",
    "district": "石狩郡"
  },
  {
    "code": "013315",
    "prefecture_code": 1,
    "name": "松前町",
    "capital": false,
    "name_kana": "マツマエチョウ",
    "district": "松前郡"
  },
  {
    "code": "013323",
    "prefecture_code": 1,
    "name": "福島町",
    "capital": false,
    "name_kana": "フクシマチョウ",
    "district": "松前郡"
  },
  {
    "code": "013331",
    "prefecture_code": 1,
    "name": "知内町",
    "capital": false,
    "name_kana": "シリウチチョウ",
    "district": "上磯郡"
  },
  {
    "code": "013340",
    "prefecture_code": 1,
    "name": "木古内町",
    "capital": false,
    "name_kana": "キコナイチョウ",
    "district": "上磯郡"
  },
  {
    "code": "013374",
    "prefecture_code": 1,
    "name": "七飯町",
    "capital": false,
    "name_kana": "ナナエチョウ",
    "district": "亀田郡"
  },
  {
    "code": "013439",
    "prefecture_code": 1,
    "name": "鹿部町",
    "capital": false,
    "name_kana": "シカベチョウ",
    "district": "茅部郡"
  },
  {
    "code": "013455",
    "prefecture_code": 1,
    "name": "森町",
    "capital": false,
    "name_kana": "モリマチ",
    "district": "茅部郡"
  },
  {
    "code": "013463",
    "prefecture_code": 1,
    "name": "八雲町",
    "capital": false,
    "name_kana": "ヤクモチョウ",
    "district": "二海郡"
  },
  {
    "code": "013471",
    "prefecture_code": 1,
    "name": "長万部町",
    "capital": false,
    "name_kana": "オシャマンベチョウ",
    "district": "山越郡"
  },
  {
    "code": "013617",
    "prefecture_code": 1,
    "name": "江差町",
    "capital": false,
    "name_kana": "エサシチョウ",
    "district": "檜山郡"
  },
  {
    "code": "013625",
    "prefecture_code": 1,
    "name": "上ノ国町",
    "capital": false,
    "name_kana": "カミノクニチョウ",
    "district": "檜山郡"
  },
  {
    "code": "013633",
    "prefecture_code": 1,
    "name": "厚沢部町",
    "capital": false,
    "name_kana": "アッサブチョウ",
    "district": "檜山郡"
  },
  {
    "code": "013641",
    "prefecture_code": 1,
    "name": "乙部町",
    "capital": false,
    "name_kana": "オトベチョウ",
    "district": "爾志郡"
  },
  {
    "code": "013676",
    "prefecture_code": 1,
    "name": "奥尻町",
    "capital": false,
    "name_kana": "オクシリチョウ",
    "district": "奥尻郡"
  },
  {
    "code": "013706",
    "prefecture_code": 1,
    "name": "今金町",
    "capital": false,
    "name_kana": "イマカネチョウ",
    "district": "瀬棚郡"
  },
  {
    "code": "013714",
    "prefecture_code": 1,
    "name": "せたな町",
    "capital": false,
    "name_kana": "セタナチョウ",
    "district": "久遠郡"
  },
  {
    "code": "013919",
    "prefecture_code": 1,
    "name": "島牧村",
    "capital": false,
    "name_kana": "シママキムラ",
    "district": "島牧郡"
  },
  {
    "code": "013927",
    "prefecture_code": 1,
    "name": "寿都町",
    "capital": false,
    "name_kana": "スッツチョウ",
    "district": "寿都郡"
  },
  {
    "code": "013935",
    "prefecture_code": 1,
    "name": "黒松内町",
    "capital": false,
    "name_kana": "クロマツナイチョウ",
    "district": "寿都郡"
  },
  {
    "code": "013943",
    "prefecture_code": 1,
    "name": "蘭越町",
    "capital": false,
    "name_kana": "ランコシチョウ",
    "district": "磯谷郡"
  },
  {
    "code": "013951",
    "prefecture_code": 1,
    "name": "ニセコ町",
    "capital": false,
    "name_kana": "ニセコチョウ",
    "district": "虻田郡"
  },
  {
    "code": "013960",
    "prefecture_code": 1,
    "name": "真狩村",
    "capital": false,
    "name_kana": "マッカリムラ",
    "district": "虻田郡"
  },
  {
    "code": "013978",
    "prefecture_code": 1,
    "name": "留寿都村",
    "capital": false,
    "name_kana": "ルスツムラ",
    "district": "虻田郡"
  },
  {
    "code": "013986",
    "prefecture_code": 1,
    "name": "喜茂別町",
    "capital": false,
    "name_kana": "キモベツチョウ",
    "district": "虻田郡"
  },
  {
    "code": "013994",
    "prefecture_code": 1,
    "name": "京極町",
    "capital": false,
    "name_kana": "キョウゴクチョウ",
    "district": "虻田郡"
  },
  {
    "code": "014001",
    "prefecture_code": 1,
    "name": "倶知安町",
    "capital": false,
    "name_kana": "クッチャンチョウ",
    "district": "虻田郡"
  },
  {
    "code": "014010",
    "prefecture_code": 1,
    "name": "共和町",
    "capital": false,
    "name_kana": "キョウワチョウ",
    "district": "岩内郡"
  },
  {
    "code": "014028",
    "prefecture_code": 1,
    "name": "岩内町",
    "capital": false,
    "name_kana": "イワナイチョウ",
    "district": "岩内郡"
  },
  {
    "code": "014036",
    "prefecture_code": 1,
    "name": "泊村",
    "capital": false,
    "name_kana": "トマリムラ",
    "district": "古宇郡"
  },
  {
    "code": "014044",
    "prefecture_code": 1,
    "name": "神恵内村",
    "capital": false,
    "name_kana": "カモエナイムラ",
    "district": "古宇郡"
  },
  {
    "code": "014052",
    "prefecture_code": 1,
    "name": "積丹町",
    "capital": false,
    "name_kana": "シャコタンチョウ",
    "district": "積丹郡"
  },
  {
    "code": "014061",
    "prefecture_code": 1,
    "name": "古平町",
    "capital": false,
    "name_kana": "フルビラチョウ",
    "district": "古平郡"
  },
  {
    "code": "014079",
    "prefecture_code": 1,
    "name": "仁木町",
    "capital": false,
    "name_kana": "ニキチョウ",
    "district": "余市郡"
  },
  {
    "code": "014087",
    "prefecture_code": 1,
    "name": "余市町",
    "capital": false,
    "name_kana": "ヨイチチョウ",
    "district": "余市郡"
  },
  {
    "code": "014095",
    "prefecture_code": 1,
    "name": "赤井川村",
    "capital": false,
    "name_kana": "アカイガワムラ",
    "district": "余市郡"
  },
  {
    "code": "014231",
    "prefecture_code": 1,
    "name": "南幌町",
    "capital": false,
    "name_kana": "ナンポロチョウ",
    "district": "空知郡"
  },
  {
    "code": "014249",
    "prefecture_code": 1,
    "name": "奈井江町",
    "capital": false,
    "name_kana": "ナイエチョウ",
    "district": "空知郡"
  },
  {
    "code": "014257",
    "prefecture_code": 1,
    "name": "上砂川町",
    "capital": false,
    "name_kana": "カミスナガワチョウ",
    "district": "空知郡"
  },
  {
    "code": "014273",
    "prefecture_code": 1,
    "name": "由仁町",
    "capital": false,
    "name_kana": "ユニチョウ",
    "district": "夕張郡"
  },
  {
    "code": "014281",
    "prefecture_code": 1,
    "name": "長沼町",
    "capital": false,
    "name_kana": "ナガヌマチョウ",
    "district": "夕張郡"
  },
  {
    "code": "014290",
    "prefecture_code": 1,
    "name": "栗山町",
    "capital": false,
    "name_kana": "クリヤマチョウ",
    "district": "夕張郡"
  },
  {
    "code": "014303",
    "prefecture_code": 1,
    "name": "月形町",
    "capital": false,
    "name_kana": "ツキガタチョウ",
    "district": "樺戸郡"
  },
  {
    "code": "014311",
    "prefecture_code": 1,
    "name": "浦臼町",
    "capital": false,
    "name_kana": "ウラウスチョウ",
    "district": "樺戸郡"
  },
  {
    "code": "014320",
    "prefecture_code": 1,
    "name": "新十津川町",
    "capital": false,
    "name_kana": "シントツカワチョウ",
    "district": "樺戸郡"
  },
  {
    "code": "014338",
    "prefecture_code": 1,
    "name": "妹背牛町",
    "capital": false,
    "name_kana": "モセウシチョウ",
    "district": "雨竜郡"
  },
  {
    "code": "014346",
    "prefecture_code": 1,
    "name": "秩父別町",
    "capital": false,
    "name_kana": "チップベツチョウ",
    "district": "雨竜郡"
  },
  {
    "code": "014362",
    "prefecture_code": 1,
    "name": "雨竜町",
    "capital": false,
    "name_kana": "ウリュウチョウ",
    "district": "雨竜郡"
  },
  {
    "code": "014371",
    "prefecture_code": 1,
    "name": "北竜町",
    "capital": false,
    "name_kana": "ホクリュウチョウ",
    "district": "雨竜郡"
  },
  {
    "code": "014389",
    "prefecture_code": 1,
    "name": "沼田町",
    "capital": false,
    "name_kana": "ヌマタチョウ",
    "district": "雨竜郡"
  },
  {
    "code": "014524",
    "prefecture_code": 1,
    "name": "鷹栖町",
    "capital": false,
    "name_kana": "タカスチョウ",
    "district": "上川郡"
  },
  {
    "code": "014532",
    "prefecture_code": 1,
    "name": "東神楽町",
    "capital": false,
    "name_kana": "ヒガシカグラチョウ",
    "district": "上川郡"
  },
  {
    "code": "014541",
    "prefecture_code": 1,
    "name": "当麻町",
    "capital": false,
    "name_kana": "トウマチョウ",
    "district": "上川郡"
  },
  {
    "code": "014559",
    "prefecture_code": 1,
    "name": "比布町",
    "capital": false,
    "name_kana": "ピップチョウ",
    "district": "上川郡"
  },
  {
    "code": "014567",
    "prefecture_code": 1,
    "name": "愛別町",
    "capital": false,
    "name_kana": "アイベツチョウ",
    "district": "上川郡"
  },
  {
    "code": "014575",
    "prefecture_code": 1,
    "name": "上川町",
    "capital": false,
    "name_kana": "カミカワチョウ",
    "district": "上川郡"
  },
  {
    "code": "014583",
    "prefecture_code": 1,
    "name": "東川町",
    "capital": false,
    "name_kana": "ヒガシカワチョウ",
    "district": "上川郡"
  },
  {
    "code": "014591",
    "prefecture_code": 1,
    "name": "美瑛町",
    "capital": false,
    "name_kana": "ビエイチョウ",
    "district": "上川郡"
  },
  {
    "code": "014605",
    "prefecture_code": 1,
    "name": "上富良野町",
    "capital": false,
    "name_kana": "カミフラノチョウ",
    "district": "空知郡"
  },
  {
    "code": "014613",
    "prefecture_code": 1,
    "name": "中富良野町",
    "capital": false,
    "name_kana": "ナカフラノチョウ",
    "district": "空知郡"
  },
  {
    "code": "014621",
    "prefecture_code": 1,
    "name": "南富良野町",
    "capital": false,
    "name_kana": "ミナミフラノチョウ",
    "district": "空知郡"
  },
  {
    "code": "014630",
    "prefecture_code": 1,
    "name": "占冠村",
    "capital": false,
    "name_kana": "シムカップムラ",
    "district": "勇払郡"
  },
  {
    "code": "014648",
    "prefecture_code": 1,
    "name": "和寒町",
    "capital": false,
    "name_kana": "ワッサムチョウ",
    "district": "上川郡"
  },
  {
    "code": "014656",
    "prefecture_code": 1,
    "name": "剣淵町",
    "capital": false,
    "name_kana": "ケンブチチョウ",
    "district": "上川郡"
  },
  {
    "code": "014681",
    "prefecture_code": 1,
    "name": "下川町",
    "capital": false,
    "name_kana": "シモカワチョウ",
    "district": "上川郡"
  },
  {
    "code": "014699",
    "prefecture_code": 1,
    "name": "美深町",
    "capital": false,
    "name_kana": "ビフカチョウ",
    "district": "中川郡"
  },
  {
    "code": "014702",
    "prefecture_code": 1,
    "name": "音威子府村",
    "capital": false,
    "name_kana": "オトイネップムラ",
    "district": "中川郡"
  },
  {
    "code": "014711",
    "prefecture_code": 1,
    "name": "中川町",
    "capital": false,
    "name_kana": "ナカガワチョウ",
    "district": "中川郡"
  },
  {
    "code": "014729",
    "prefecture_code": 1,
    "name": "幌加内町",
    "capital": false,
    "name_kana": "ホロカナイチョウ",
    "district": "雨竜郡"
  },
  {
    "code": "014818",
    "prefecture_code": 1,
    "name": "増毛町",
    "capital": false,
    "name_kana": "マシケチョウ",
    "district": "増毛郡"
  },
  {
    "code": "014826",
    "prefecture_code": 1,
    "name": "小平町",
    "capital": false,
    "name_kana": "オビラチョウ",
    "district": "留萌郡"
  },
  {
    "code": "014834",
    "prefecture_code": 1,
    "name": "苫前町",
    "capital": false,
    "name_kana": "トママエチョウ",
    "district": "苫前郡"
  },
  {
    "code": "014842",
    "prefecture_code": 1,
    "name": "羽幌町",
    "capital": false,
    "name_kana": "ハボロチョウ",
    "district": "苫前郡"
  },
  {
    "code": "014851",
    "prefecture_code": 1,
    "name": "初山別村",
    "capital": false,
    "name_kana": "ショサンベツムラ",
    "district": "苫前郡"
  },
  {
    "code": "014869",
    "prefecture_code": 1,
    "name": "遠別町",
    "capital": false,
    "name_kana": "エンベツチョウ",
    "district": "天塩郡"
  },
  {
    "code": "014877",
    "prefecture_code": 1,
    "name": "天塩町",
    "capital": false,
    "name_kana": "テシオチョウ",
    "district": "天塩郡"
  },
  {
    "code": "015113",
    "prefecture_code": 1,
    "name": "猿払村",
    "capital": false,
    "name_kana": "サルフツムラ",
    "district": "宗谷郡"
  },
  {
    "code": "015121",
    "prefecture_code": 1,
    "name": "浜頓別町",
    "capital": false,
    "name_kana": "ハマトンベツチョウ",
    "district": "枝幸郡"
  },
  {
    "code": "015130",
    "prefecture_code": 1,
    "name": "中頓別町",
    "capital": false,
    "name_kana": "ナカトンベツチョウ",
    "district": "枝幸郡"
  },
  {
    "code": "015148",
    "prefecture_code": 1,
    "name": "枝幸町",
    "capital": false,
    "name_kana": "エサシチョウ",
    "district": "枝幸郡"
  },
  {
    "code": "015164",
    "prefecture_code": 1,
    "name": "豊富町",
    "capital": false,
    "name_kana": "トヨトミチョウ",
    "district": "天塩郡"
  },
  {
    "code": "015172",
    "prefecture_code": 1,
    "name": "礼文町",
    "capital": false,
    "name_kana": "レブンチョウ",
    "district": "礼文郡"
  },
  {
    "code": "015181",
    "prefecture_code": 1,
    "name": "利尻町",
    "capital": false,
    "name_kana": "リシリチョウ",
    "district": "利尻郡"
  },
  {
    "code": "015199",
    "prefecture_code": 1,
    "name": "利尻富士町",
    "capital": false,
    "name_kana": "リシリフジチョウ",
    "district": "利尻郡"
  },
  {
    "code": "015202",
    "prefecture_code": 1,
    "name": "幌延町",
    "capital": false,
    "name_kana": "ホロノベチョウ",
    "district": "天塩郡"
  },
  {
    "code": "015431",
    "prefecture_code": 1,
    "name": "美幌町",
    "capital": false,
    "name_kana": "ビホロチョウ",
    "district": "網走郡"
  },
  {
    "code": "015440",
    "prefecture_code": 1,
    "name": "津別町",
    "capital": false,
    "name_kana": "ツベツチョウ",
    "district": "網走郡"
  },
  {
    "code": "015458",
    "prefecture_code": 1,
    "name": "斜里町",
    "capital": false,
    "name_kana": "シャリチョウ",
    "district": "斜里郡"
  },
  {
    "code": "015466",
    "prefecture_code": 1,
    "name": "清里町",
    "capital": false,
    "name_kana": "キヨサトチョウ",
    "district": "斜里郡"
  },
  {
    "code": "015474",
    "prefecture_code": 1,
    "name": "小清水町",
    "capital": false,
    "name_kana": "コシミズチョウ",
    "district": "斜里郡"
  },
  {
    "code": "015491",
    "prefecture_code": 1,
    "name": "訓子府町",
    "capital": false,
    "name_kana": "クンネップチョウ",
    "district": "常呂郡"
  },
  {
    "code": "015504",
    "prefecture_code": 1,
    "name": "置戸町",
    "capital": false,
    "name_kana": "オケトチョウ",
    "district": "常呂郡"
  },
  {
    "code": "015521",
    "prefecture_code": 1,
    "name": "佐呂間町",
    "capital": false,
    "name_kana": "サロマチョウ",
    "district": "常呂郡"
  },
  {
    "code": "015555",
    "prefecture_code": 1,
    "name": "遠軽町",
    "capital": false,
    "name_kana": "エンガルチョウ",
    "district": "紋別郡"
  },
  {
    "code": "015598",
    "prefecture_code": 1,
    "name": "湧別町",
    "capital": false,
    "name_kana": "ユウベツチョウ",
    "district": "紋別郡"
  },
  {
    "code": "015601",
    "prefecture_code": 1,
    "name": "滝上町",
    "capital": false,
    "name_kana": "タキノウエチョウ",
    "district": "紋別郡"
  },
  {
    "code": "015610",
    "prefecture_code": 1,
    "name": "興部町",
    "capital": false,
    "name_kana": "オコッペチョウ",
    "district": "紋別郡"
  },
  {
    "code": "015628",
    "prefecture_code": 1,
    "name": "西興部村",
    "capital": false,
    "name_kana": "ニシオコッペムラ",
    "district": "紋別郡"
  },
  {
    "code": "015636",
    "prefecture_code": 1,
    "name": "雄武町",
    "capital": false,
    "name_kana": "オウムチョウ",
    "district": "紋別郡"
  },
  {
    "code": "015644",
    "prefecture_code": 1,
    "name": "大空町",
    "capital": false,
    "name_kana": "オオゾラチョウ",
    "district": "網走郡"
  },
  {
    "code": "015717",
    "prefecture_code": 1,
    "name": "豊浦町",
    "capital": false,
    "name_kana": "トヨウラチョウ",
    "district": "虻田郡"
  },
  {
    "code": "015750",
    "prefecture_code": 1,
    "name": "壮瞥町",
    "capital": false,
    "name_kana": "ソウベツチョウ",
    "district": "有珠郡"
  },
  {
    "code": "015784",
    "prefecture_code": 1,
    "name": "白老町",
    "capital": false,
    "name_kana": "シラオイチョウ",
    "district": "白老郡"
  },
  {
    "code": "015814",
    "prefecture_code": 1,
    "name": "厚真町",
    "capital": false,
    "name_kana": "アツマチョウ",
    "district": "勇払郡"
  },
  {
    "code": "015849",
    "prefecture_code": 1,
    "name": "洞爺湖町",
    "capital": false,
    "name_kana": "トウヤコチョウ",
    "district": "虻田郡"
  },
  {
    "code": "015857",
    "prefecture_code": 1,
    "name": "安平町",
    "capital": false,
    "name_kana": "アビラチョウ",
    "district": "勇払郡"
  },
  {
    "code": "015865",
    "prefecture_code": 1,
    "name": "むかわ町",
    "capital": false,
    "name_kana": "ムカワチョウ",
    "district": "勇払郡"
  },
  {
    "code": "016012",
    "prefecture_code": 1,
    "name": "日高町",
    "capital": false,
    "name_kana": "ヒダカチョウ",
    "district": "沙流郡"
  },
  {
    "code": "016021",
    "prefecture_code": 1,
    "name": "平取町",
    "capital": false,
    "name_kana": "ビラトリチョウ",
    "district": "沙流郡"
  },
  {
    "code": "016047",
    "prefecture_code": 1,
    "name": "新冠町",
    "capital": false,
    "name_kana": "ニイカップチョウ",
    "district": "新冠郡"
  },
  {
    "code": "016071",
    "prefecture_code": 1,
    "name": "浦河町",
    "capital": false,
    "name_kana": "ウラカワチョウ",
    "district": "浦河郡"
  },
  {
    "code": "016080",
    "prefecture_code": 1,
    "name": "様似町",
    "capital": false,
    "name_kana": "サマニチョウ",
    "district": "様似郡"
  },
  {
    "code": "016098",
    "prefecture_code": 1,
    "name": "えりも町",
    "capital": false,
    "name_kana": "エリモチョウ",
    "district": "幌泉郡"
  },
  {
    "code": "016101",
    "prefecture_code": 1,
    "name": "新ひだか町",
    "capital": false,
    "name_kana": "シンヒダカチョウ",
    "district": "日高郡"
  },
  {
    "code": "016314",
    "prefecture_code": 1,
    "name": "音更町",
    "capital": false,
    "name_kana": "オトフケチョウ",
    "district": "河東郡"
  },
  {
    "code": "016322",
    "prefecture_code": 1,
    "name": "士幌町",
    "capital": false,
    "name_kana": "シホロチョウ",
    "district": "河東郡"
  },
  {
    "code": "016331",
    "prefecture_code": 1,
    "name": "上士幌町",
    "capital": false,
    "name_kana": "カミシホロチョウ",
    "district": "河東郡"
  },
  {
    "code": "016349",
    "prefecture_code": 1,
    "name": "鹿追町",
    "capital": false,
    "name_kana": "シカオイチョウ",
    "district": "河東郡"
  },
  {
    "code": "016357",
    "prefecture_code": 1,
    "name": "新得町",
    "capital": false,
    "name_kana": "シントクチョウ",
    "district": "上川郡"
  },
  {
    "code": "016365",
    "prefecture_code": 1,
    "name": "清水町",
    "capital": false,
    "name_kana": "シミズチョウ",
    "district": "上川郡"
  },
  {
    "code": "016373",
    "prefecture_code": 1,
    "name": "芽室町",
    "capital": false,
    "name_kana": "メムロチョウ",
    "district": "河西郡"
  },
  {
    "code": "016381",
    "prefecture_code": 1,
    "name": "中札内村",
    "capital": false,
    "name_kana": "ナカサツナイムラ",
    "district": "河西郡"
  },
  {
    "code": "016390",
    "prefecture_code": 1,
    "name": "更別村",
    "capital": false,
    "name_kana": "サラベツムラ",
    "district": "河西郡"
  },
  {
    "code": "016411",
    "prefecture_code": 1,
    "name": "大樹町",
    "capital": false,
    "name_kana": "タイキチョウ",
    "district": "広尾郡"
  },
  {
    "code": "016420",
    "prefecture_code": 1,
    "name": "広尾町",
    "capital": false,
    "name_kana": "ヒロオチョウ",
    "district": "広尾郡"
  },
  {
    "code": "016438",
    "prefecture_code": 1,
    "name": "幕別町",
    "capital": false,
    "name_kana": "マクベツチョウ",
    "district": "中川郡"
  },
  {
    "code": "016446",
    "prefecture_code": 1,
    "name": "池田町",
    "capital": false,
    "name_kana": "イケダチョウ",
    "district": "中川郡"
  },
  {
    "code": "016454",
    "prefecture_code": 1,
    "name": "豊頃町",
    "capital": false,
    "name_kana": "トヨコロチョウ",
    "district": "中川郡"
  },
  {
    "code": "016462",
    "prefecture_code": 1,
    "name": "本別町",
    "capital": false,
    "name_kana": "ホンベツチョウ",
    "district": "中川郡"
  },
  {
    "code": "016471",
    "prefecture_code": 1,
    "name": "足寄町",
    "capital": false,
    "name_kana": "アショロチョウ",
    "district": "足寄郡"
  },
  {
    "code": "016489",
    "prefecture_code": 1,
    "name": "陸別町",
    "capital": false,
    "name_kana": "リクベツチョウ",
    "district": "足寄郡"
  },
  {
    "code": "016497",
    "prefecture_code": 1,
    "name": "浦幌町",
    "capital": false,
    "name_kana": "ウラホロチョウ",
    "district": "十勝郡"
  },
  {
    "code": "016616",
    "prefecture_code": 1,
    "name": "釧路町",
    "capital": false,
    "name_kana": "クシロチョウ",
    "district": "釧路郡"
  },
  {
    "code": "016624",
    "prefecture_code": 1,
    "name": "厚岸町",
    "capital": false,
    "name_kana": "アッケシチョウ",
    "district": "厚岸郡"
  },
  {
    "code": "016632",
    "prefecture_code": 1,
    "name": "浜中町",
    "capital": false,
    "name_kana": "ハマナカチョウ",
    "district": "厚岸郡"
  },
  {
    "code": "016641",
    "prefecture_code": 1,
    "name": "標茶町",
    "capital": false,
    "name_kana": "シベチャチョウ",
    "district": "川上郡"
  },
  {
    "code": "016659",
    "prefecture_code": 1,
    "name": "弟子屈町",
    "capital": false,
    "name_kana": "テシカガチョウ",
    "district": "川上郡"
  },
  {
    "code": "016675",
    "prefecture_code": 1,
    "name": "鶴居村",
    "capital": false,
    "name_kana": "ツルイムラ",
    "district": "阿寒郡"
  },
  {
    "code": "016683",
    "prefecture_code": 1,
    "name": "白糠町",
    "capital": false,
    "name_kana": "シラヌカチョウ",
    "district": "白糠郡"
  },
  {
    "code": "016918",
    "prefecture_code": 1,
    "name": "別海町",
    "capital": false,
    "name_kana": "ベツカイチョウ",
    "district": "野付郡"
  },
  {
    "code": "016926",
    "prefecture_code": 1,
    "name": "中標津町",
    "capital": false,
    "name_kana": "ナカシベツチョウ",
    "district": "標津郡"
  },
  {
    "code": "016934",
    "prefecture_code": 1,
    "name": "標津町",
    "capital": false,
    "name_kana": "シベツチョウ",
    "district": "標津郡"
  },
  {
    "code": "016942",
    "prefecture_code": 1,
    "name": "羅臼町",
    "capital": false,
    "name_kana": "ラウスチョウ",
    "district": "目梨郡"
  },
  {
    "code": "016951",
    "prefecture_code": 1,
    "name": "色丹村",
    "capital": false,
    "name_kana": "シコタンムラ"
  },
  {
    "code": "016969",
    "prefecture_code": 1,
    "name": "泊村",
    "capital": false,
    "name_kana": "トマリムラ",
    "district": "古宇郡"
  },
  {
    "code": "016977",
    "prefecture_code": 1,
    "name": "留夜別村",
    "capital": false,
    "name_kana": "ルヤベツムラ"
  },
  {
    "code": "016985",
    "prefecture_code": 1,
    "name": "留別村",
    "capital": false,
    "name_kana": "ルベツムラ"
  },
  {
    "code": "016993",
    "prefecture_code": 1,
    "name": "紗那村",
    "capital": false,
    "name_kana": "シャナムラ"
  },
  {
    "code": "017001",
    "prefecture_code": 1,
    "name": "蘂取村",
    "capital": false,
    "name_kana": "シベトロムラ"
  }
]