[
  {
    "code": "041009",
    "prefecture_code": 4,
    "name": "仙台市",
    "capital": true,
    "name_kana": "センダイシ"
  },
  {
    "code": "041017",
    "prefecture_code": 4,
    "name": "仙台市青葉区",
    "capital": false,
    "name_kana": "センダイシアオバク"
  },
  {
    "code": "041025",
    "prefecture_code": 4,
    "name": "仙台市宮城野区",
    "capital": false,
    "name_kana": "センダイシミヤギノク"
  },
  {
    "code": "041033",
    "prefecture_code": 4,
    "name": "仙台市若林区",
    "capital": false,
    "name_kana": "センダイシワカバヤシク"
  },
  {
    "code": "041041",
    "prefecture_code": 4,
    "name": "仙台市太白区",
    "capital": false,
    "name_kana": "センダイシタイハクク"
  },
  {
    "code": "041050",
    "prefecture_code": 4,
    "name": "仙台市泉区",
    "capital": false,
    "name_kana": "センダイシイズミク"
  },
  {
    "code": "042021",
    "prefecture_code": 4,
    "name": "石巻市",
    "capital": false,
    "name_kana": "イシノマキシ"
  },
  {
    "code": "042030",
    "prefecture_code": 4,
    "name": "塩竈市",
    "capital": false,
    "name_kana": "シオガマシ"
  },
  {
    "code": "042056",
    "prefecture_code": 4,
    "name": "気仙沼市",
    "capital": false,
    "name_kana": "ケセンヌマシ"
  },
  {
    "code": "042064",
    "prefecture_code": 4,
    "name": "白石市",
    "capital": false,
    "name_kana": "シロイシシ"
  },
  {
    "code": "042072",
    "prefecture_code": 4,
    "name": "名取市",
    "capital": false,
    "name_kana": "ナトリシ"
  },
  {
    "code": "042081",
    "prefecture_code": 4,
    "name": "角田市",
    "capital": false,
    "name_kana": "カクダシ"
  },
  {
    "code": "042099",
    "prefecture_code": 4,
    "name": "多賀城市",
    "capital": false,
    "name_kana": "タガジョウシ"
  },
  {
    "code": "042111",
    "prefecture_code": 4,
    "name": "岩沼市",
    "capital": false,
    "name_kana": "イワヌマシ"
  },
  {
    "code": "042129",
    "prefecture_code": 4,
    "name": "登米市",
    "capital": false,
    "name_kana": "トメシ"
  },
  {
    "code": "042137",
    "prefecture_code": 4,
    "name": "栗原市",
    "capital": false,
    "name_kana": "クリハラシ"
  },
  {
    "code": "042145",
    "prefecture_code": 4,
    "name": "東松島市",
    "capital": false,
    "name_kana": "ヒガシマツシマシ"
  },
  {
    "code": "042153",
    "prefecture_code": 4,
    "name": "大崎市",
    "capital": false,
    "name_kana": "オオサキシ"
  },
  {
    "code": "042161",
    "prefecture_code": 4,
    "name": "富谷市",
    "capital": false,
    "name_kana": "トミヤシ"
  },
  {
    "code": "043010",
    "prefecture_code": 4,
    "name": "蔵王町",
    "capital": false,
    "name_kana": "ザオウマチ",
    "district": "刈田郡"
  },
  {
    "code": "043028",
    "prefecture_code": 4,
    "name": "七ヶ宿町",
    "capital": false,
    "name_kana": "シチカシュクマチ",
    "district": "刈田郡"
  },
  {
    "code": "043214",
    "prefecture_code": 4,
    "name": "大河原町",
    "capital": false,
    "name_kana": "オオガワラマチ",
    "district": "柴田郡"
  },
  {
    "code": "043222",
    "prefecture_code": 4,
    "name": "村田町",
    "capital": false,
    "name_kana": "ムラタマチ",
    "district": "柴田郡"
  },
  {
    "code": "043231",
    "prefecture_code": 4,
    "name": "柴田町",
    "capital": false,
    "name_kana": "シバタマチ",
    "district": "柴田郡"
  },
  {
    "code": "043249",
    "prefecture_code": 4,
    "name": "川崎町",
    "capital": false,
    "name_kana": "カワサキマチ",
    "district": "柴田郡"
  },
  {
    "code": "043419",
    "prefecture_code": 4,
    "name": "丸森町",
    "capital": false,
    "name_kana": "マルモリマチ",
    "district": "伊具郡"
  },
  {
    "code": "043613",
    "prefecture_code": 4,
    "name": "亘理町",
    "capital": false,
    "name_kana": "ワタリチョウ",
    "district": "亘理郡"
  },
  {
    "code": "043621",
    "prefecture_code": 4,
    "name": "山元町",
    "capital": false,
    "name_kana": "ヤマモトチョウ",
    "district": "亘理郡"
  },
  {
    "code": "044016",
    "prefecture_code": 4,
    "name": "松島町",
    "capital": false,
    "name_kana": "マツシママチ",
    "district": "宮城郡"
  },
  {
    "code": "044041",
    "prefecture_code": 4,
    "name": "七ヶ浜町",
    "capital": false,
    "name_kana": "シチガハママチ",
    "district": "宮城郡"
  },
  {
    "code": "044067",
    "prefecture_code": 4,
    "name": "利府町",
    "capital": false,
    "name_kana": "リフチョウ",
    "district": "宮城郡"
  },
  {
    "code": "044211",
    "prefecture_code": 4,
    "name": "大和町",
    "capital": false,
    "name_kana": "タイワチョウ",
    "district": "黒川郡"
  },
  {
    "code": "044229",
    "prefecture_code": 4,
    "name": "大郷町",
    "capital": false,
    "name_kana": "オオサトチョウ",
    "district": "黒川郡"
  },
  {
    "code": "044245",
    "prefecture_code": 4,
    "name": "大衡村",
    "capital": false,
    "name_kana": "オオヒラムラ",
    "district": "黒川郡"
  },
  {
    "code": "044440",
    "prefecture_code": 4,
    "name": "色麻町",
    "capital": false,
    "name_kana": "シカマチョウ",
    "district": "加美郡"
  },
  {
    "code": "044458",
    "prefecture_code": 4,
    "name": "加美町",
    "capital": false,
    "name_kana": "カミマチ",
    "district": "加美郡"
  },
  {
    "code": "045012",
    "prefecture_code": 4,
    "name": "涌谷町",
    "capital": false,
    "name_kana": "ワクヤチョウ",
    "district": "遠田郡"
  },
  {
    "code": "045055",
    "prefecture_code": 4,
    "name": "美里町",
    "capital": false,
    "name_kana": "ミサトマチ",
    "district": "遠田郡"
  },
  {
    "code": "045811",
    "prefecture_code": 4,
    "name": "女川町",
    "capital": false,
    "name_kana": "オナガワチョウ",
    "district": "牡鹿郡"
  },
  {
    "code": "046060",
    "prefecture_code": 4,
    "name": "南三陸町",
    "capital": false,
    "name_kana": "ミナミサンリクチョウ",
    "district": "本吉郡"
  }
]