[
  {
    "code": "052019",
    "prefecture_code": 5,
    "name": "秋田市",
    "capital": true,
    "name_kana": "アキタシ",
    "district": "北"
  },
  {
    "code": "052027",
    "prefecture_code": 5,
    "name": "能代市",
    "capital": false,
    "name_kana": "ノシロシ"
  },
  {
    "code": "052035",
    "prefecture_code": 5,
    "name": "横手市",
    "capital": false,
    "name_kana": "ヨコテシ"
  },
  {
    "code": "052043",
    "prefecture_code": 5,
    "name": "大館市",
    "capital": false,
    "name_kana": "オオダテシ"
  },
  {
    "code": "052060",
    "prefecture_code": 5,
    "name": "男鹿市",
    "capital": false,
    "name_kana": "オガシ"
  },
  {
    "code": "052078",
    "prefecture_code": 5,
    "name": "湯沢市",
    "capital": false,
    "name_kana": "ユザワシ"
  },
  {
    "code": "052094",
    "prefecture_code": 5,
    "name": "鹿角市",
    "capital": false,
    "name_kana": "カヅノシ"
  },
  {
    "code": "052108",
    "prefecture_code": 5,
    "name": "由利本荘市",
    "capital": false,
    "name_kana": "ユリホンジョウシ"
  },
  {
    "code": "052116",
    "prefecture_code": 5,
    "name": "潟上市",
    "capital": false,
    "name_kana": "カタガミシ"
  },
  {
    "code": "052124",
    "prefecture_code": 5,
    "name": "大仙市",
    "capital": false,
    "name_kana": "ダイセンシ"
  },
  {
    "code": "052132",
    "prefecture_code": 5,
    "name": "北秋田市",
    "capital": false,
    "name_kana": "キタアキタシ"
  },
  {
    "code": "052141",
    "prefecture_code": 5,
    "name": "にかほ市",
    "capital": false,
    "name_kana": "ニカホシ"
  },
  {
    "code": "052159",
    "prefecture_code": 5,
    "name": "仙北市",
    "capital": false,
    "name_kana": "センボクシ"
  },
  {
    "code": "053031",
    "prefecture_code": 5,
    "name": "小坂町",
    "capital": false,
    "name_kana": "コサカマチ",
    "district": "鹿角郡"
  },
  {
    "code": "053279",
    "prefecture_code": 5,
    "name": "上小阿仁村",
    "capital": false,
    "name_kana": "カミコアニムラ",
    "district": "北秋田郡"
  },
  {
    "code": "053465",
    "prefecture_code": 5,
    "name": "藤里町",
    "capital": false,
    "name_kana": "フジサトマチ",
    "district": "山本郡"
  },
  {
    "code": "053481",
    "prefecture_code": 5,
    "name": "三種町",
    "capital": false,
    "name_kana": "ミタネチョウ",
    "district": "山本郡"
  },
  {
    "code": "053490",
    "prefecture_code": 5,
    "name": "八峰町",
    "capital": false,
    "name_kana": "ハッポウチョウ",
    "district": "山本郡"
  },
  {
    "code": "053619",
    "prefecture_code": 5,
    "name": "五城目町",
    "capital": false,
    "name_kana": "ゴジョウメマチ",
    "district": "南秋田郡"
  },
  {
    "code": "053635",
    "prefecture_code": 5,
    "name": "八郎潟町",
    "capital": false,
    "name_kana": "ハチロウガタマチ",
    "district": "南秋田郡"
  },
  {
    "code": "053660",
    "prefecture_code": 5,
    "name": "井川町",
    "capital": false,
    "name_kana": "イカワマチ",
    "district": "南秋田郡"
  },
  {
    "code": "053686",
    "prefecture_code": 5,
    "name": "大潟村",
    "capital": false,
    "name_kana": "オオガタムラ",
    "district": "南秋田郡"
  },
  {
    "code": "054348",
    "prefecture_code": 5,
    "name": "美郷町",
    "capital": false,
    "name_kana": "ミサトチョウ",
    "district": "仙北郡"
  },
  {
    "code": "054631",
    "prefecture_code": 5,
    "name": "羽後町",
    "capital": false,
    "name_kana": "ウゴマチ",
    "district": "雄勝郡"
  },
  {
    "code": "054640",
    "prefecture_code": 5,
    "name": "東成瀬村",
    "capital": false,
    "name_kana": "ヒガシナルセムラ",
    "district": "雄勝郡"
  }
]