[
  {
    "code": "242012",
    "prefecture_code": 24,
    "name": "津市",
    "capital": true,
    "name_kana": "ツシ"
  },
  {
    "code": "242021",
    "prefecture_code": 24,
    "name": "四日市市",
    "capital": false,
    "name_kana": "ヨッカイチシ"
  },
  {
    "code": "242039",
    "prefecture_code": 24,
    "name": "伊勢市",
    "capital": false,
    "name_kana": "イセシ"
  },
  {
    "code": "242047",
    "prefecture_code": 24,
    "name": "松阪市",
    "capital": false,
    "name_kana": "マツサカシ"
  },
  {
    "code": "242055",
    "prefecture_code": 24,
    "name": "桑名市",
    "capital": false,
    "name_kana": "クワナシ"
  },
  {
    "code": "242071",
    "prefecture_code": 24,
    "name": "鈴鹿市",
    "capital": false,
    "name_kana": "スズカシ"
  },
  {
    "code": "242080",
    "prefecture_code": 24,
    "name": "名張市",
    "capital": false,
    "name_kana": "ナバリシ"
  },
  {
    "code": "242098",
    "prefecture_code": 24,
    "name": "尾鷲市",
    "capital": false,
    "name_kana": "オワセシ"
  },
  {
    "code": "242101",
    "prefecture_code": 24,
    "name": "亀山市",
    "capital": false,
    "name_kana": "カメヤマシ"
  },
  {
    "code": "242110",
    "prefecture_code": 24,
    "name": "鳥羽市",
    "capital": false,
    "name_kana": "トバシ"
  },
  {
    "code": "242128",
    "prefecture_code": 24,
    "name": "熊野市",
    "capital": false,
    "name_kana": "クマノシ"
  },
  {
    "code": "242144",
    "prefecture_code": 24,
    "name": "いなべ市",
    "capital": false,
    "name_kana": "イナベシ"
  },
  {
    "code": "242152",
    "prefecture_code": 24,
    "name": "志摩市",
    "capital": false,
    "name_kana": "シマシ"
  },
  {
    "code": "242161",
    "prefecture_code": 24,
    "name": "伊賀市",
    "capital": false,
    "name_kana": "イガシ"
  },
  {
    "code": "243035",
    "prefecture_code": 24,
    "name": "木曽岬町",
    "capital": false,
    "name_kana": "キソサキチョウ",
    "district": "桑名郡"
  },
  {
    "code": "243248",
    "prefecture_code": 24,
    "name": "東員町",
    "capital": false,
    "name_kana": "トウインチョウ",
    "district": "員弁郡"
  },
  {
    "code": "243418",
    "prefecture_code": 24,
    "name": "菰野町",
    "capital": false,
    "name_kana": "コモノチョウ",
    "district": "三重郡"
  },
  {
    "code": "243434",
    "prefecture_code": 24,
    "name": "朝日町",
    "capital": false,
    "name_kana": "アサヒチョウ",
    "district": "三重郡"
  },
  {
    "code": "243442",
    "prefecture_code": 24,
    "name": "川越町",
    "capital": false,
    "name_kana": "カワゴエチョウ",
    "district": "三重郡"
  },
  {
    "code": "244414",
    "prefecture_code": 24,
    "name": "多気町",
    "capital": false,
    "name_kana": "タキチョウ",
    "district": "多気郡"
  },
  {
    "code": "244422",
    "prefecture_code": 24,
    "name": "明和町",
    "capital": false,
    "name_kana": "メイワチョウ",
    "district": "多気郡"
  },
  {
    "code": "244431",
    "prefecture_code": 24,
    "name": "大台町",
    "capital": false,
    "name_kana": "オオダイチョウ",
    "district": "多気郡"
  },
  {
    "code": "244619",
    "prefecture_code": 24,
    "name": "玉城町",
    "capital": false,
    "name_kana": "タマキチョウ",
    "district": "度会郡"
  },
  {
    "code": "244708",
    "prefecture_code": 24,
    "name": "度会町",
    "capital": false,
    "name_kana": "ワタライチョウ",
    "district": "度会郡"
  },
  {
    "code": "244716",
    "prefecture_code": 24,
    "name": "大紀町",
    "capital": false,
    "name_kana": "タイキチョウ",
    "district": "度会郡"
  },
  {
    "code": "244724",
    "prefecture_code": 24,
    "name": "南伊勢町",
    "capital": false,
    "name_kana": "ミナミイセチョウ",
    "district": "度会郡"
  },
  {
    "code": "245437",
    "prefecture_code": 24,
    "name": "紀北町",
    "capital": false,
    "name_kana": "キホクチョウ",
    "district": "北牟婁郡"
  },
  {
    "code": "245615",
    "prefecture_code": 24,
    "name": "御浜町",
    "capital": false,
    "name_kana": "ミハマチョウ",
    "district": "南牟婁郡"
  },
  {
    "code": "245623",
    "prefecture_code": 24,
    "name": "紀宝町",
    "capital": false,
    "name_kana": "キホウチョウ",
    "district": "南牟婁郡"
  }
]