[
  {
    "code": "392014",
    "prefecture_code": 39,
    "name": "高知市",
    "capital": true,
    "name_kana": "コウチシ"
  },
  {
    "code": "392022",
    "prefecture_code": 39,
    "name": "室戸市",
    "capital": false,
    "name_kana": "ムロトシ"
  },
  {
    "code": "392031",
    "prefecture_code": 39,
    "name": "安芸市",
    "capital": false,
    "name_kana": "アキシ"
  },
  {
    "code": "392049",
    "prefecture_code": 39,
    "name": "南国市",
    "capital": false,
    "name_kana": "ナンコクシ"
  },
  {
    "code": "392057",
    "prefecture_code": 39,
    "name": "土佐市",
    "capital": false,
    "name_kana": "トサシ"
  },
  {
    "code": "392065",
    "prefecture_code": 39,
    "name": "須崎市",
    "capital": false,
    "name_kana": "スサキシ"
  },
  {
    "code": "392081",
    "prefecture_code": 39,
    "name": "宿毛市",
    "capital": false,
    "name_kana": "スクモシ"
  },
  {
    "code": "392090",
    "prefecture_code": 39,
    "name": "土佐清水市",
    "capital": false,
    "name_kana": "トサシミズシ"
  },
  {
    "code": "392103",
    "prefecture_code": 39,
    "name": "四万十市",
    "capital": false,
    "name_kana": "シマントシ"
  },
  {
    "code": "392111",
    "prefecture_code": 39,
    "name": "香南市",
    "capital": false,
    "name_kana": "コウナンシ"
  },
  {
    "code": "392120",
    "prefecture_code": 39,
    "name": "香美市",
    "capital": false,
    "name_kana": "カミシ"
  },
  {
    "code": "393011",
    "prefecture_code": 39,
    "name": "東洋町",
    "capital": false,
    "name_kana": "トウヨウチョウ",
    "district": "安芸郡"
  },
  {
    "code": "393029",
    "prefecture_code": 39,
    "name": "奈半利町",
    "capital": false,
    "name_kana": "ナハリチョウ",
    "district": "安芸郡"
  },
  {
    "code": "393037",
    "prefecture_code": 39,
    "name": "田野町",
    "capital": false,
    "name_kana": "タノチョウ",
    "district": "安芸郡"
  },
  {
    "code": "393045",
    "prefecture_code": 39,
    "name": "安田町",
    "capital": false,
    "name_kana": "ヤスダチョウ",
    "district": "安芸郡"
  },
  {
    "code": "393053",
    "prefecture_code": 39,
    "name": "北川村",
    "capital": false,
    "name_kana": "キタガワムラ",
    "district": "安芸郡"
  },
  {
    "code": "393061",
    "prefecture_code": 39,
    "name": "馬路村",
    "capital": false,
    "name_kana": "ウマジムラ",
    "district": "安芸郡"
  },
  {
    "code": "393070",
    "prefecture_code": 39,
    "name": "芸西村",
    "capital": false,
    "name_kana": "ゲイセイムラ",
    "district": "安芸郡"
  },
  {
    "code": "393410",
    "prefecture_code": 39,
    "name": "本山町",
    "capital": false,
    "name_kana": "モトヤマチョウ",
    "district": "長岡郡"
  },
  {
    "code": "393444",
    "prefecture_code": 39,
    "name": "大豊町",
    "capital": false,
    "name_kana": "オオトヨチョウ",
    "district": "長岡郡"
  },
  {
    "code": "393631",
    "prefecture_code": 39,
    "name": "土佐町",
    "capital": false,
    "name_kana": "トサチョウ",
    "district": "土佐郡"
  },
  {
    "code": "393649",
    "prefecture_code": 39,
    "name": "大川村",
    "capital": false,
    "name_kana": "オオカワムラ",
    "district": "土佐郡"
  },
  {
    "code": "393860",
    "prefecture_code": 39,
    "name": "いの町",
    "capital": false,
    "name_kana": "イノチョウ",
    "district": "吾川郡"
  },
  {
    "code": "393878",
    "prefecture_code": 39,
    "name": "仁淀川町",
    "capital": false,
    "name_kana": "ニヨドガワチョウ",
    "district": "吾川郡"
  },
  {
    "code": "394017",
    "prefecture_code": 39,
    "name": "中土佐町",
    "capital": false,
    "name_kana": "ナカトサチョウ",
    "district": "高岡郡"
  },
  {
    "code": "394025",
    "prefecture_code": 39,
    "name": "佐川町",
    "capital": false,
    "name_kana": "サカワチョウ",
    "district": "高岡郡"
  },
  {
    "code": "394033",
    "prefecture_code": 39,
    "name": "越知町",
    "capital": false,
    "name_kana": "オチチョウ",
    "district": "高岡郡"
  },
  {
    "code": "394050",
    "prefecture_code": 39,
    "name": "檮原町",
    "capital": false,
    "name_kana": "ユスハラチョウ",
    "district": "高岡郡"
  },
  {
    "code": "394106",
    "prefecture_code": 39,
    "name": "日高村",
    "capital": false,
    "name_kana": "ヒダカムラ",
    "district": "高岡郡"
  },
  {
    "code": "394114",
    "prefecture_code": 39,
    "name": "津野町",
    "capital": false,
    "name_kana": "ツノチョウ",
    "district": "高岡郡"
  },
  {
    "code": "394122",
    "prefecture_code": 39,
    "name": "四万十町",
    "capital": false,
    "name_kana": "シマントチョウ",
    "district": "高岡郡"
  },
  {
    "code": "394246",
    "prefecture_code": 39,
    "name": "大月町",
    "capital": false,
    "name_kana": "オオツキチョウ",
    "district": "幡多郡"
  },
  {
    "code": "394271",
    "prefecture_code": 39,
    "name": "三原村",
    "capital": false,
    "name_kana": "ミハラムラ",
    "district": "幡多郡"
  },
  {
    "code": "394289",
    "prefecture_code": 39,
    "name": "黒潮町",
    "capital": false,
    "name_kana": "クロシオチョウ",
    "district": "幡多郡"
  }
]