[
  {
    "code": "431001",
    "prefecture_code": 43,
    "name": "熊本市",
    "capital": true,
    "name_kana": "クマモトシ"
  },
  {
    "code": "431010",
    "prefecture_code": 43,
    "name": "熊本市中央区",
    "capital": false,
    "name_kana": "クマモトシチュウオウク"
  },
  {
    "code": "431028",
    "prefecture_code": 43,
    "name": "熊本市東区",
    "capital": false,
    "name_kana": "クマモトシヒガシク"
  },
  {
    "code": "431036",
    "prefecture_code": 43,
    "name": "熊本市西区",
    "capital": false,
    "name_kana": "クマモトシニシク"
  },
  {
    "code": "431044",
    "prefecture_code": 43,
    "name": "熊本市南区",
    "capital": false,
    "name_kana": "クマモトシミナミク"
  },
  {
    "code": "431052",
    "prefecture_code": 43,
    "name": "熊本市北区",
    "capital": false,
    "name_kana": "クマモトシキタク"
  },
  {
    "code": "432024",
    "prefecture_code": 43,
    "name": "八代市",
    "capital": false,
    "name_kana": "ヤツシロシ"
  },
  {
    "code": "432032",
    "prefecture_code": 43,
    "name": "人吉市",
    "capital": false,
    "name_kana": "ヒトヨシシ"
  },
  {
    "code": "432041",
    "prefecture_code": 43,
    "name": "荒尾市",
    "capital": false,
    "name_kana": "アラオシ"
  },
  {
    "code": "432059",
    "prefecture_code": 43,
    "name": "水俣市",
    "capital": false,
    "name_kana": "ミナマタシ"
  },
  {
    "code": "432067",
    "prefecture_code": 43,
    "name": "玉名市",
    "capital": false,
    "name_kana": "タマナシ"
  },
  {
    "code": "432083",
    "prefecture_code": 43,
    "name": "山鹿市",
    "capital": false,
    "name_kana": "ヤマガシ"
  },
  {
    "code": "432105",
    "prefecture_code": 43,
    "name": "菊池市",
    "capital": false,
    "name_kana": "キクチシ"
  },
  {
    "code": "432113",
    "prefecture_code": 43,
    "name": "宇土市",
    "capital": false,
    "name_kana": "ウトシ"
  },
  {
    "code": "432121",
    "prefecture_code": 43,
    "name": "上天草市",
    "capital": false,
    "name_kana": "カミアマクサシ"
  },
  {
    "code": "432130",
    "prefecture_code": 43,
    "name": "宇城市",
    "capital": false,
    "name_kana": "ウキシ"
  },
  {
    "code": "432148",
    "prefecture_code": 43,
    "name": "阿蘇市",
    "capital": false,
    "name_kana": "アソシ"
  },
  {
    "code": "432156",
    "prefecture_code": 43,
    "name": "天草市",
    "capital": false,
    "name_kana": "アマクサシ"
  },
  {
    "code": "432164",
    "prefecture_code": 43,
    "name": "合志市",
    "capital": false,
    "name_kana": "コウシシ"
  },
  {
    "code": "433489",
    "prefecture_code": 43,
    "name": "美里町",
    "capital": false,
    "name_kana": "ミサトマチ",
    "district": "下益城郡"
  },
  {
    "code": "433641",
    "prefecture_code": 43,
    "name": "玉東町",
    "capital": false,
    "name_kana": "ギョクトウマチ",
    "district": "玉名郡"
  },
  {
    "code": "433675",
    "prefecture_code": 43,
    "name": "南関町",
    "capital": false,
    "name_kana": "ナンカンマチ",
    "district": "玉名郡"
  },
  {
    "code": "433683",
    "prefecture_code": 43,
    "name": "長洲町",
    "capital": false,
    "name_kana": "ナガスマチ",
    "district": "玉名郡"
  },
  {
    "code": "433691",
    "prefecture_code": 43,
    "name": "和水町",
    "capital": false,
    "name_kana": "ナゴミマチ",
    "district": "玉名郡"
  },
  {
    "code": "434035",
    "prefecture_code": 43,
    "name": "大津町",
    "capital": false,
    "name_kana": "オオヅマチ",
    "district": "菊池郡"
  },
  {
    "code": "434043",
    "prefecture_code": 43,
    "name": "菊陽町",
    "capital": false,
    "name_kana": "キクヨウマチ",
    "district": "菊池郡"
  },
  {
    "code": "434230",
    "prefecture_code": 43,
    "name": "南小国町",
    "capital": false,
    "name_kana": "ミナミオグニマチ",
    "district": "阿蘇郡"
  },
  {
    "code": "434248",
    "prefecture_code": 43,
    "name": "小国町",
    "capital": false,
    "name_kana": "オグニマチ",
    "district": "阿蘇郡"
  },
  {
    "code": "434256",
    "prefecture_code": 43,
    "name": "産山村",
    "capital": false,
    "name_kana": "ウブヤマムラ",
    "district": "阿蘇郡"
  },
  {
    "code": "434281",
    "prefecture_code": 43,
    "name": "高森町",
    "capital": false,
    "name_kana": "タカモリマチ",
    "district": "阿蘇郡"
  },
  {
    "code": "434329",
    "prefecture_code": 43,
    "name": "西原村",
    "capital": false,
    "name_kana": "ニシハラムラ",
    "district": "阿蘇郡"
  },
  {
    "code": "434337",
    "prefecture_code": 43,
    "name": "南阿蘇村",
    "capital": false,
    "name_kana": "ミナミアソムラ",
    "district": "阿蘇郡"
  },
  {
    "code": "434418",
    "prefecture_code": 43,
    "name": "御船町",
    "capital": false,
    "name_kana": "ミフネマチ",
    "district": "上益城郡"
  },
  {
    "code": "434426",
    "prefecture_code": 43,
    "name": "嘉島町",
    "capital": false,
    "name_kana": "カシママチ",
    "district": "上益城郡"
  },
  {
    "code": "434434",
    "prefecture_code": 43,
    "name": "益城町",
    "capital": false,
    "name_kana": "マシキマチ",
    "district": "上益城郡"
  },
  {
    "code": "434442",
    "prefecture_code": 43,
    "name": "甲佐町",
    "capital": false,
    "name_kana": "コウサマチ",
    "district": "上益城郡"
  },
  {
    "code": "434477",
    "prefecture_code": 43,
    "name": "山都町",
    "capital": false,
    "name_kana": "ヤマトチョウ",
    "district": "上益城郡"
  },
  {
    "code": "434680",
    "prefecture_code": 43,
    "name": "氷川町",
    "capital": false,
    "name_kana": "ヒカワチョウ",
    "district": "八代郡"
  },
  {
    "code": "434825",
    "prefecture_code": 43,
    "name": "芦北町",
    "capital": false,
    "name_kana": "アシキタマチ",
    "district": "葦北郡"
  },
  {
    "code": "434841",
    "prefecture_code": 43,
    "name": "津奈木町",
    "capital": false,
    "name_kana": "ツナギマチ",
    "district": "葦北郡"
  },
  {
    "code": "435015",
    "prefecture_code": 43,
    "name": "錦町",
    "capital": false,
    "name_kana": "ニシキマチ",
    "district": "球磨郡"
  },
  {
    "code": "435058",
    "prefecture_code": 43,
    "name": "多良木町",
    "capital": false,
    "name_kana": "タラギマチ",
    "district": "球磨郡"
  },
  {
    "code": "435066",
    "prefecture_code": 43,
    "name": "湯前町",
    "capital": false,
    "name_kana": "ユノマエマチ",
    "district": "球磨郡"
  },
  {
    "code": "435074",
    "prefecture_code": 43,
    "name": "水上村",
    "capital": false,
    "name_kana": "ミズカミムラ",
    "district": "球磨郡"
  },
  {
    "code": "435104",
    "prefecture_code": 43,
    "name": "相良村",
    "capital": false,
    "name_kana": "サガラムラ",
    "district": "球磨郡"
  },
  {
    "code": "435112",
    "prefecture_code": 43,
    "name": "五木村",
    "capital": false,
    "name_kana": "イツキムラ",
    "district": "球磨郡"
  },
  {
    "code": "435121",
    "prefecture_code": 43,
    "name": "山江村",
    "capital": false,
    "name_kana": "ヤマエムラ",
    "district": "球磨郡"
  },
  {
    "code": "435139",
    "prefecture_code": 43,
    "name": "球磨村",
    "capital": false,
    "name_kana": "クマムラ",
    "district": "球磨郡"
  },
  {
    "code": "435147",
    "prefecture_code": 43,
    "name": "あさぎり町",
    "capital": false,
    "name_kana": "アサギリチョウ",
    "district": "球磨郡"
  },
  {
    "code": "435317",
    "prefecture_code": 43,
    "name": "苓北町",
    "capital": false,
    "name_kana": "レイホクマチ",
    "district": "天草郡"
  }
]