[
  {
    "code": "472018",
    "prefecture_code": 47,
    "name": "那覇市",
    "capital": true,
    "name_kana": "ナハシ"
  },
  {
    "code": "472051",
    "prefecture_code": 47,
    "name": "宜野湾市",
    "capital": false,
    "name_kana": "ギノワンシ"
  },
  {
    "code": "472077",
    "prefecture_code": 47,
    "name": "石垣市",
    "capital": false,
    "name_kana": "イシガキシ"
  },
  {
    "code": "472085",
    "prefecture_code": 47,
    "name": "浦添市",
    "capital": false,
    "name_kana": "ウラソエシ"
  },
  {
    "code": "472093",
    "prefecture_code": 47,
    "name": "名護市",
    "capital": false,
    "name_kana": "ナゴシ"
  },
  {
    "code": "472107",
    "prefecture_code": 47,
    "name": "糸満市",
    "capital": false,
    "name_kana": "イトマンシ"
  },
  {
    "code": "472115",
    "prefecture_code": 47,
    "name": "沖縄市",
    "capital": false,
    "name_kana": "オキナワシ"
  },
  {
    "code": "472123",
    "prefecture_code": 47,
    "name": "豊見城市",
    "capital": false,
    "name_kana": "トミグスクシ"
  },
  {
    "code": "472131",
    "prefecture_code": 47,
    "name": "うるま市",
    "capital": false,
    "name_kana": "ウルマシ"
  },
  {
    "code": "472140",
    "prefecture_code": 47,
    "name": "宮古島市",
    "capital": false,
    "name_kana": "ミヤコジマシ"
  },
  {
    "code": "472158",
    "prefecture_code": 47,
    "name": "南城市",
    "capital": false,
    "name_kana": "ナンジョウシ"
  },
  {
    "code": "473014",
    "prefecture_code": 47,
    "name": "国頭村",
    "capital": false,
    "name_kana": "クニガミソン",
    "district": "国頭郡"
  },
  {
    "code": "473022",
    "prefecture_code": 47,
    "name": "大宜味村",
    "capital": false,
    "name_kana": "オオギミソン",
    "district": "国頭郡"
  },
  {
    "code": "473031",
    "prefecture_code": 47,
    "name": "東村",
    "capital": false,
    "name_kana": "ヒガシソン",
    "district": "島尻郡南大"
  },
  {
    "code": "473065",
    "prefecture_code": 47,
    "name": "今帰仁村",
    "capital": false,
    "name_kana": "ナキジンソン",
    "district": "国頭郡"
  },
  {
    "code": "473081",
    "prefecture_code": 47,
    "name": "本部町",
    "capital": false,
    "name_kana": "モトブチョウ",
    "district": "国頭郡"
  },
  {
    "code": "473111",
    "prefecture_code": 47,
    "name": "恩納村",
    "capital": false,
    "name_kana": "オンナソン",
    "district": "国頭郡"
  },
  {
    "code": "473138",
    "prefecture_code": 47,
    "name": "宜野座村",
    "capital": false,
    "name_kana": "ギノザソン",
    "district": "国頭郡"
  },
  {
    "code": "473146",
    "prefecture_code": 47,
    "name": "金武町",
    "capital": false,
    "name_kana": "キンチョウ",
    "district": "国頭郡"
  },
  {
    "code": "473154",
    "prefecture_code": 47,
    "name": "伊江村",
    "capital": false,
    "name_kana": "イエソン",
    "district": "国頭郡"
  },
  {
    "code": "473243",
    "prefecture_code": 47,
    "name": "読谷村",
    "capital": false,
    "name_kana": "ヨミタンソン",
    "district": "中頭郡"
  },
  {
    "code": "473251",
    "prefecture_code": 47,
    "name": "嘉手納町",
    "capital": false,
    "name_kana": "カデナチョウ",
    "district": "中頭郡"
  },
  {
    "code": "473260",
    "prefecture_code": 47,
    "name": "北谷町",
    "capital": false,
    "name_kana": "チヤタンチョウ",
    "district": "中頭郡"
  },
  {
    "code": "473278",
    "prefecture_code": 47,
    "name": "北中城村",
    "capital": false,
    "name_kana": "キタナカグスクソン",
    "district": "中頭郡"
  },
  {
    "code": "473286",
    "prefecture_code": 47,
    "name": "中城村",
    "capital": false,
    "name_kana": "ナカグスクソン",
    "district": "中頭郡北"
  },
  {
    "code": "473294",
    "prefecture_code": 47,
    "name": "西原町",
    "capital": false,
    "name_kana": "ニシハラチョウ",
    "district": "中頭郡"
  },
  {
    "code": "473481",
    "prefecture_code": 47,
    "name": "与那原町",
    "capital": false,
    "name_kana": "ヨナバルチョウ",
    "district": "島尻郡"
  },
  {
    "code": "473502",
    "prefecture_code": 47,
    "name": "南風原町",
    "capital": false,
    "name_kana": "ハエバルチョウ",
    "district": "島尻郡"
  },
  {
    "code": "473537",
    "prefecture_code": 47,
    "name": "渡嘉敷村",
    "capital": false,
    "name_kana": "トカシキソン",
    "district": "島尻郡"
  },
  {
    "code": "473545",
    "prefecture_code": 47,
    "name": "座間味村",
    "capital": false,
    "name_kana": "ザマミソン",
    "district": "島尻郡"
  },
  {
    "code": "473553",
    "prefecture_code": 47,
    "name": "粟国村",
    "capital": false,
    "name_kana": "アグニソン",
    "district": "島尻郡"
  },
  {
    "code": "473561",
    "prefecture_code": 47,
    "name": "渡名喜村",
    "capital": false,
    "name_kana": "トナキソン",
    "district": "島尻郡"
  },
  {
    "code": "473570",
    "prefecture_code": 47,
    "name": "南大東村",
    "capital": false,
    "name_kana": "ミナミダイトウソン",
    "district": "島尻郡"
  },
  {
    "code": "473588",
    "prefecture_code": 47,
    "name": "北大東村",
    "capital": false,
    "name_kana": "キタダイトウソン",
    "district": "島尻郡"
  },
  {
    "code": "473596",
    "prefecture_code": 47,
    "name": "伊平屋村",
    "capital": false,
    "name_kana": "イヘヤソン",
    "district": "島尻郡"
  },
  {
    "code": "473600",
    "prefecture_code": 47,
    "name": "伊是名村",
    "capital": false,
    "name_kana": "イゼナソン",
    "district": "島尻郡"
  },
  {
    "code": "473618",
    "prefecture_code": 47,
    "name": "久米島町",
    "capital": false,
    "name_kana": "クメジマチョウ",
    "district": "島尻郡"
  },
  {
    "code": "473626",
    "prefecture_code": 47,
    "name": "八重瀬町",
    "capital": false,
    "name_kana": "ヤエセチョウ",
    "district": "島尻郡"
  },
  {
    "code": "473758",
    "prefecture_code": 47,
    "name": "多良間村",
    "capital": false,
    "name_kana": "タラマソン",
    "district": "宮古郡"
  },
  {
    "code": "473812",
    "prefecture_code": 47,
    "name": "竹富町",
    "capital": false,
    "name_kana": "タケトミチョウ",
    "district": "八重山郡"
  },
  {
    "code": "473821",
    "prefecture_code": 47,
    "name": "与那国町",
    "capital": false,
    "name_kana": "ヨナグニチョウ",
    "district": "八重山郡"
  }
]